{
  "type": "FeatureCollection",
  "name": "cadastral_parcels",
  "crs": {
    "type": "name",
    "properties": {
      "name": "urn:ogc:def:crs:OGC:1.3:CRS84"
    }
  },
  "features": [
    {
      "type": "Feature",
      "properties": {
        "parcel_id": "CAD-7001",
        "owner_name": "Apex Holdings Ltd",
        "area_sqm": 2450.5,
        "zone_type": "Commercial",
        "registered_status": "Active"
      },
      "geometry": {
        "type": "Polygon",
        "coordinates": [
          [
            [73.856744, 18.52043],
            [73.857216, 18.52043],
            [73.857216, 18.52098],
            [73.856744, 18.52098],
            [73.856744, 18.52043]
          ]
        ]
      }
    },
    {
      "type": "Feature",
      "properties": {
        "parcel_id": "CAD-7002",
        "owner_name": "Verma Estate Trust",
        "area_sqm": 1820.0,
        "zone_type": "Residential",
        "registered_status": "Active"
      },
      "geometry": {
        "type": "Polygon",
        "coordinates": [
          [
            [73.8573, 18.52045],
            [73.85775, 18.52045],
            [73.85775, 18.52095],
            [73.8573, 18.52095],
            [73.8573, 18.52045]
          ]
        ]
      }
    },
    {
      "type": "Feature",
      "properties": {
        "parcel_id": "CAD-7003",
        "owner_name": "Municipal Transport Authority",
        "area_sqm": 4100.8,
        "zone_type": "Infrastructure",
        "registered_status": "Active"
      },
      "geometry": {
        "type": "Polygon",
        "coordinates": [
          [
            [73.8566, 18.5211],
            [73.8578, 18.5211],
            [73.8578, 18.5218],
            [73.8566, 18.5218],
            [73.8566, 18.5211]
          ]
        ]
      }
    }
  ]
}
